*******************************************************************************
Ephemeris / WWW_USER Wed Mar 14 15:38:36 2018 Pasadena, USA      / Horizons    
*******************************************************************************
Target body name: Phobos (401)                    {source: mar097}
Center body name: Solar System Barycenter (0)     {source: DE431mx}
Center-site name: BODY CENTER
*******************************************************************************
Start time      : A.D. 2000-Jan-01 00:00:00.0000 TDB
Stop  time      : A.D. 2001-Jan-01 00:00:00.0000 TDB
Step-size       : 7200 minutes
*******************************************************************************
Center geodetic : 0.00000000,0.00000000,0.0000000 {E-lon(deg),Lat(deg),Alt(km)}
Center cylindric: 0.00000000,0.00000000,0.0000000 {E-lon(deg),Dxy(km),Dz(km)}
Center radii    : (undefined)                                                  
Output units    : AU-D                                                         
Output type     : GEOMETRIC cartesian states
Output format   : 2 (position and velocity)
Reference frame : ICRF/J2000.0                                                 
Coordinate systm: Ecliptic and Mean Equinox of Reference Epoch                 
*******************************************************************************
JDTDB
   X     Y     Z
   VX    VY    VZ
*******************************************************************************
$$SOE
2451544.500000000 = A.D. 2000-Jan-01 00:00:00.0000 TDB 
   1.383256133166077E+00 -2.375240835590299E-02 -3.442630411824461E-02
  -1.368063202051367E-04  1.592697854340082E-02  7.660746379238403E-04
2451549.500000000 = A.D. 2000-Jan-06 00:00:00.0000 TDB 
   1.385104314658165E+00  5.203039272081289E-02 -3.288112689519251E-02
   9.776911223241425E-04  1.572637635497178E-02 -1.387521695745259E-04
2451554.500000000 = A.D. 2000-Jan-11 00:00:00.0000 TDB 
   1.383077976105073E+00  1.278223736466305E-01 -3.120384986981863E-02
  -7.350572457743932E-04  1.389334613850896E-02  2.665995769582634E-04
2451559.500000000 = A.D. 2000-Jan-16 00:00:00.0000 TDB 
   1.377439465609719E+00  2.032678171033319E-01 -2.951963216260791E-02
  -2.538755056036381E-03  1.553607578332540E-02  8.733696130400720E-04
2451564.500000000 = A.D. 2000-Jan-21 00:00:00.0000 TDB 
   1.368001380031272E+00  2.779927511405919E-01 -2.772891503601475E-02
  -1.401423910572362E-03  1.567904914735973E-02 -1.916432380124671E-05
2451569.500000000 = A.D. 2000-Jan-26 00:00:00.0000 TDB 
   1.354785746608645E+00  3.521038747428114E-01 -2.580811509734982E-02
  -2.715760611722419E-03  1.354673217622354E-02  1.979703182236336E-04
2451574.500000000 = A.D. 2000-Jan-31 00:00:00.0000 TDB 
   1.338115192049333E+00  4.253206480223022E-01 -2.389290020903091E-02
  -4.803130221767097E-03  1.476356433147704E-02  9.462587113372121E-04
2451579.500000000 = A.D. 2000-Feb-05 00:00:00.0000 TDB 
   1.317875370475153E+00  4.972347624969740E-01 -2.190503359596109E-02
  -3.714878341478993E-03  1.524786767665475E-02  1.097773872341203E-04
2451584.500000000 = A.D. 2000-Feb-10 00:00:00.0000 TDB 
   1.294060923488037E+00  5.679554992069209E-01 -1.979302287847487E-02
  -4.584195538560789E-03  1.292082287656652E-02  1.272282430240825E-04
2451589.500000000 = A.D. 2000-Feb-15 00:00:00.0000 TDB 
   1.267036594903816E+00  6.372881864934196E-01 -1.769669470192925E-02
  -6.867169894234221E-03  1.365473505845923E-02  9.820951709932101E-04
2451594.500000000 = A.D. 2000-Feb-20 00:00:00.0000 TDB 
   1.236764188341477E+00  7.048069386868073E-01 -1.556307504256290E-02
  -5.899197420455925E-03  1.445906442461531E-02  2.436875405285048E-04
2451599.500000000 = A.D. 2000-Feb-25 00:00:00.0000 TDB 
   1.203209081778516E+00  7.706144742533512E-01 -1.331494757787777E-02
  -6.299404276038462E-03  1.204915594058249E-02  5.897900186247165E-05
2451604.500000000 = A.D. 2000-Mar-01 00:00:00.0000 TDB 
   1.166758469213927E+00  8.346074473542151E-01 -1.108969296217622E-02
  -8.682179667433327E-03  1.226487074162154E-02  9.800127544355049E-04
2451609.500000000 = A.D. 2000-Mar-06 00:00:00.0000 TDB 
   1.127450271169636E+00  8.963589209081204E-01 -8.862417734122528E-03
  -7.900739333948165E-03  1.334932804351252E-02  3.776910136288545E-04
2451614.500000000 = A.D. 2000-Mar-11 00:00:00.0000 TDB 
   1.085220982635859E+00  9.559552492264969E-01 -6.533696274519791E-03
  -7.831224717987610E-03  1.096976093242066E-02 -2.159699262434333E-06
2451619.500000000 = A.D. 2000-Mar-16 00:00:00.0000 TDB 
   1.040460479791038E+00  1.013384577359383E+00 -4.231920994333645E-03
  -1.021436840080345E-02  1.065494997812401E-02  9.408778041484103E-04
2451624.500000000 = A.D. 2000-Mar-21 00:00:00.0000 TDB 
   9.932800431317608E-01  1.068234735261237E+00 -1.961807374790741E-03
  -9.677117061467625E-03  1.196237275829561E-02  5.067164150169771E-04
2451629.500000000 = A.D. 2000-Mar-26 00:00:00.0000 TDB 
   9.435902365465643E-01  1.120566061338648E+00  3.935663759090394E-04
  -9.159713843903964E-03  9.722032417698184E-03 -5.203183408366322E-05
2451634.500000000 = A.D. 2000-Mar-31 00:00:00.0000 TDB 
   8.917649647576013E-01  1.170453486849700E+00  2.720969537112743E-03
  -1.144480468566758E-02  8.887339440878298E-03  8.673466694835486E-04
2451639.500000000 = A.D. 2000-Apr-05 00:00:00.0000 TDB 
   8.379837662420228E-01  1.217514306934026E+00  4.985939356885675E-03
  -1.119677754458740E-02  1.034575057524927E-02  6.254769573556145E-04
2451644.500000000 = A.D. 2000-Apr-10 00:00:00.0000 TDB 
   7.821367943026938E-01  1.261774302044272E+00  7.317186386025350E-03
  -1.027423220435059E-02  8.343945053727393E-03 -8.706433930097796E-05
2451649.500000000 = A.D. 2000-Apr-15 00:00:00.0000 TDB 
   7.245654185996789E-01  1.303386220494842E+00  9.622152769974314E-03
  -1.236768314660211E-02  7.022115609221917E-03  7.635423105740466E-04
2451654.500000000 = A.D. 2000-Apr-20 00:00:00.0000 TDB 
   6.655103072958812E-01  1.342010140801026E+00  1.183791914823108E-02
  -1.243854498418472E-02  8.548446672918096E-03  7.288000405176620E-04
2451659.500000000 = A.D. 2000-Apr-25 00:00:00.0000 TDB 
   6.048489696183657E-01  1.377630657571136E+00  1.409856030350718E-02
  -1.117140153406433E-02  6.870180103031889E-03 -1.047013727628293E-04
2451664.500000000 = A.D. 2000-Apr-30 00:00:00.0000 TDB 
   5.428764951046249E-01  1.410465959801092E+00  1.633675922867972E-02
  -1.298850054612367E-02  5.114669220209253E-03  6.349682570962568E-04
2451669.500000000 = A.D. 2000-May-05 00:00:00.0000 TDB 
   4.798857641521924E-01  1.440230532048819E+00  1.846384215773016E-02
  -1.339009952040910E-02  6.618948755854646E-03  8.117235003299901E-04
2451674.500000000 = A.D. 2000-May-10 00:00:00.0000 TDB 
   4.157511339472848E-01  1.466863781631701E+00  2.061242035163763E-02
  -1.185338567599350E-02  5.331381220707978E-03 -1.034872396024248E-04
2451679.500000000 = A.D. 2000-May-15 00:00:00.0000 TDB 
   3.507109253563405E-01  1.490634424691465E+00  2.274381851688089E-02
  -1.332145923180662E-02  3.213614042759694E-03  4.880707718624066E-04
2451684.500000000 = A.D. 2000-May-20 00:00:00.0000 TDB 
   2.850998064107952E-01  1.511321019442134E+00  2.474760362360536E-02
  -1.404687769806705E-02  4.604235995817108E-03  8.698425021110288E-04
2451689.500000000 = A.D. 2000-May-25 00:00:00.0000 TDB 
   2.187994627752007E-01  1.528816829766755E+00  2.674806391122894E-02
  -1.232595457513386E-02  3.753488378692706E-03 -8.322815915392659E-05
2451694.500000000 = A.D. 2000-May-30 00:00:00.0000 TDB 
   1.519844980585036E-01  1.543424579917451E+00  2.873719151248515E-02
  -1.338728972970163E-02  1.360057726094919E-03  3.300566195401716E-04
2451699.500000000 = A.D. 2000-Jun-04 00:00:00.0000 TDB 
   8.501967113520804E-02  1.554994309075123E+00  3.058793322450798E-02
  -1.441073375307979E-02  2.548666644293553E-03  8.995270216449656E-04
2451704.500000000 = A.D. 2000-Jun-09 00:00:00.0000 TDB 
   1.780472118208159E-02  1.563375423802530E+00  3.240971435902668E-02
  -1.259693213594312E-02  2.158425222959421E-03 -4.501025647892570E-05
2451709.500000000 = A.D. 2000-Jun-14 00:00:00.0000 TDB 
  -4.955285285131470E-02  1.568887424474888E+00  3.422573818429091E-02
  -1.321087763212594E-02 -4.130497152019002E-04  1.684175500995607E-04
2451714.500000000 = A.D. 2000-Jun-19 00:00:00.0000 TDB 
  -1.166708069584435E-01  1.571456716685397E+00  3.589835804112208E-02
  -1.448867896795210E-02  4.939175690326892E-04  8.981014007027840E-04
2451719.500000000 = A.D. 2000-Jun-24 00:00:00.0000 TDB 
  -1.836211958847125E-01  1.570894322503505E+00  3.751629292337942E-02
  -1.267487198948697E-02  5.643573081440389E-04  8.829264726326624E-06
2451724.500000000 = A.D. 2000-Jun-29 00:00:00.0000 TDB 
  -2.503634952717901E-01  1.567519418272146E+00  3.913294224717761E-02
  -1.281928736560245E-02 -2.080403468090278E-03  1.055771021047935E-05
2451729.500000000 = A.D. 2000-Jul-04 00:00:00.0000 TDB 
  -3.165111418945635E-01  1.561336928067998E+00  4.060671103848725E-02
  -1.429214731781324E-02 -1.521623807712390E-03  8.641395817047280E-04
2451734.500000000 = A.D. 2000-Jul-09 00:00:00.0000 TDB 
  -3.820990866920434E-01  1.552127840363779E+00  4.200077294932184E-02
  -1.256818723662094E-02 -1.013073913834915E-03  7.479052027341554E-05
2451739.500000000 = A.D. 2000-Jul-14 00:00:00.0000 TDB 
  -4.471503883277751E-01  1.540194845417648E+00  4.339619113687680E-02
  -1.224035322463136E-02 -3.624038744115759E-03 -1.364779357213046E-04
2451744.500000000 = A.D. 2000-Jul-19 00:00:00.0000 TDB 
  -5.112874263524693E-01  1.525620643274314E+00  4.465433778362478E-02
  -1.383607662031212E-02 -3.462659106123659E-03  7.975883914091280E-04
2451749.500000000 = A.D. 2000-Jul-24 00:00:00.0000 TDB 
  -5.745010496763039E-01  1.508166968655801E+00  4.580930393347519E-02
  -1.228477252347413E-02 -2.560095159278501E-03  1.484697923203838E-04
